[{"OBJECT_NAME":"SAUDISAT 5B","OBJECT_ID":"2018-102C","EPOCH":"2026-03-09T22:59:17.457216","MEAN_MOTION":15.27248504,"ECCENTRICITY":0.00120577,"INCLINATION":97.3281,"RA_OF_ASC_NODE":135.3629,"ARG_OF_PERICENTER":124.0958,"MEAN_ANOMALY":236.1427,"EPHEMERIS_TYPE":0,"CLASSIFICATION_TYPE":"U","NORAD_CAT_ID":43833,"ELEMENT_SET_NO":999,"REV_AT_EPOCH":40064,"BSTAR":0.00024926623,"MEAN_MOTION_DOT":6.596e-5,"MEAN_MOTION_DDOT":0},{"OBJECT_NAME":"STARLINK-32202","OBJECT_ID":"2024-150N","EPOCH":"2026-03-09T22:03:19.173024","MEAN_MOTION":15.30186461,"ECCENTRICITY":0.00012573,"INCLINATION":53.1615,"RA_OF_ASC_NODE":306.1616,"ARG_OF_PERICENTER":90.6982,"MEAN_ANOMALY":269.4162,"EPHEMERIS_TYPE":0,"CLASSIFICATION_TYPE":"U","NORAD_CAT_ID":60595,"ELEMENT_SET_NO":999,"REV_AT_EPOCH":8807,"BSTAR":3.6447111e-5,"MEAN_MOTION_DOT":7.2e-6,"MEAN_MOTION_DDOT":0}]
